CELESTIS-01             
1 24780U 97018B   01263.63789657  .00038268  00000-0  12065-2 0  8092
2 24780 150.9611 272.8746 0010120 111.9974 248.1639 15.30484355243749
CELESTIS-02             
1 25160U 98007D   01263.73967315  .00000258  00000-0  17829-3 0  3721
2 25160 108.0197 154.8990 0061917 105.2663 255.5326 14.19904697187043
CELESTIS-03             
1 26034U 99070C   01263.80471974  .00007632  00000-0  14725-2 0  3849
2 26034  98.2222 167.4689 0026644  21.4680 338.7634 14.63522624 93322
